0 COSMOS 970 DEB
1 14906U 77121BK  13281.21161781  .00000261  00000-0  36625-3 0  2515
2 14906 065.9550 351.9138 0125402 319.0576 070.9604 13.69848077495206
0 COSMOS 970 DEB
1 14906U 77121BK  13283.26221707  .00000294  00000-0  40263-3 0  2527
2 14906 065.9548 346.9139 0125577 318.0580 103.3478 13.69850062495482
0 COSMOS 970 DEB
1 14906U 77121BK  13287.12455453  .00000336  00000-0  44703-3 0  2534
2 14906 065.9543 337.4970 0125954 316.1862 070.2188 13.69852738496018
0 COSMOS 970 DEB
1 14906U 77121BK  13289.56022045  .00000374  00000-0  48797-3 0  2541
2 14906 065.9538 331.5577 0126129 315.0094 201.5714 13.69855677496345
0 COSMOS 970 DEB
1 14906U 77121BK  13292.47233608  .00000393  00000-0  50836-3 0  2553
2 14906 065.9537 324.4567 0126364 313.6154 162.5280 13.69858582496742
0 COSMOS 970 DEB
1 14906U 77121BK  13294.52373558  .00000414  00000-0  53143-3 0  2569
2 14906 065.9538 319.4548 0126514 312.6404 198.9152 13.69860474497026
